CZ-2C R/B               
1 58754U 24007B   24020.68105579  .00011504  00000+0  51024-3 0  9996
2 58754  29.0158 130.6083 0113990 104.6904 256.6363 15.14248595  1684
TIANXING-1 02           
1 58756U 24008A   24020.82741849  .00120515  00000+0  60147-3 0  9990
2 58756  95.1283  92.3931 0024902 158.2300 202.0038 15.81060396  1537
YUNYAO-1 18             
1 58758U 24009A   24020.76862334  .00031811  00000+0  12107-2 0  9991
2 58758  49.9884 124.7328 0014406 325.7754  34.2273 15.26333923  1450
YUNYAO-1 19             
1 58759U 24009B   24020.83427458  .00031967  00000+0  12176-2 0  9992
2 58759  49.9822 124.4073 0014067 326.5216  33.4849 15.26308629  1479
YUNYAO-1 20             
1 58760U 24009C   24020.83372446  .00032034  00000+0  12168-2 0  9997
2 58760  49.9887 124.4063 0014142 328.3104  31.7000 15.26398528  1478
GRAVITY-1 R/B           
1 58761U 24009D   24020.74626963  .00064423  11493-4  39069-3 0  9994
2 58761  49.8522 122.1183 0160682  21.9572 338.8181 15.61789335  1490
STARLINK-31127          
1 58765U 24011A   24020.58334491 -.00826700  00000+0 -33559-2 0  9995
2 58765  53.1643 306.5996 0000784  79.2564  13.4070 15.87436153  2094
STARLINK-31114          
1 58766U 24011B   24020.58334491 -.00841753  00000+0 -34125-2 0  9991
2 58766  53.1641 306.5965 0000629  76.9049  17.2024 15.87498568  2098
STARLINK-31140          
1 58767U 24011C   24020.58334491 -.00847213  00000+0 -34262-2 0  9991
2 58767  53.1640 306.5931 0000616  86.9599   8.7480 15.87560544  2206
STARLINK-31145          
1 58768U 24011D   24020.58334491 -.00858395  00000+0 -34660-2 0  9997
2 58768  53.1640 306.5903 0000800  67.8589  29.1976 15.87616129  2093
STARLINK-31146          
1 58769U 24011E   24020.58334491 -.00866725  00000+0 -34928-2 0  9991
2 58769  53.1641 306.5875 0000576  91.3816   7.2090 15.87676321  2205
STARLINK-31143          
1 58770U 24011F   24020.58334491 -.00872557  00000+0 -35091-2 0  9995
2 58770  53.1641 306.5842 0000660  85.5944  14.4153 15.87730101  2096
STARLINK-31135          
1 58771U 24011G   24020.58334491 -.00886726  00000+0 -35620-2 0  9997
2 58771  53.1639 306.5813 0000518 115.9419 345.4273 15.87786868  2090
STARLINK-31136          
1 58772U 24011H   24020.58334491 -.00895256  00000+0 -35891-2 0  9996
2 58772  53.1640 306.5783 0000553  93.9204   8.9595 15.87846113  2206
STARLINK-31073          
1 58773U 24011J   24020.58334491 -.00900682  00000+0 -36027-2 0  9999
2 58773  53.1639 306.5751 0000695  78.3301  26.0478 15.87902550  2098
STARLINK-31122          
1 58774U 24011K   24020.58334491 -.00915130  00000+0 -36548-2 0  9992
2 58774  53.1638 306.5718 0000637  79.7631  26.1677 15.87967475  2200
STARLINK-31123          
1 58775U 24011L   24020.58334491 -.00926724  00000+0 -36931-2 0  9990
2 58775  53.1639 306.5681 0000546  92.9275  14.7550 15.88038208  2095
STARLINK-31117          
1 58776U 24011M   24020.58334491 -.00930704  00000+0 -37034-2 0  9999
2 58776  53.1637 306.5657 0000605  88.9194  19.8924 15.88076782  2098
STARLINK-31132          
1 58777U 24011N   24020.58334491 -.00943959  00000+0 -37497-2 0  9999
2 58777  53.1636 306.5626 0000586  91.8136  18.5943 15.88141781  2203
STARLINK-31120          
1 58778U 24011P   24020.58334491 -.00960427  00000+0 -38018-2 0  9999
2 58778  53.1634 306.5562 0000460  93.3397  19.9428 15.88250578  2093
STARLINK-31142          
1 58779U 24011Q   24020.58334491 -.00952952  00000+0 -37797-2 0  9997
2 58779  53.1638 306.5592 0000629  86.2353  25.4981 15.88192331  2202
STARLINK-31103          
1 58780U 24011R   24020.58334491 -.00969419  00000+0 -38295-2 0  9999
2 58780  53.1634 306.5530 0000611  90.6326  24.2320 15.88310980  2095
STARLINK-31099          
1 58781U 24011S   24020.58334491 -.00989638  00000+0 -38972-2 0  9997
2 58781  53.1633 306.5469 0000500  92.1853  25.5469 15.88420822  2090
STARLINK-31060          
1 58782U 24011T   24020.58334491 -.00979309  00000+0 -38623-2 0  9995
2 58782  53.1633 306.5499 0000577  83.9076  32.4007 15.88366425  2096
STARLINK-31047          
1 58783U 24011U   24020.58334491 -.01000301  00000+0 -39328-2 0  9997
2 58783  53.1634 306.5438 0000456  93.7056  25.5249 15.88478219  2090
STARLINK-31039          
1 58784U 24011V   24020.58334491 -.01012412  00000+0 -39729-2 0  9999
2 58784  53.1634 306.5405 0000507  89.2425  31.6574 15.88543405  2091
STARLINK-31034          
1 58785U 24011W   24020.58334491 -.01021559  00000+0 -40030-2 0  9999
2 58785  53.1634 306.5376 0000497  83.1861  39.0675 15.88593474  2099
STARLINK-31024          
1 58786U 24011X   24020.58334491 -.01031573  00000+0 -40338-2 0  9998
2 58786  53.1633 306.5337 0000680  74.7875  49.1310 15.88656414  2093
TIANZHOU-7              
1 58811U 24013A   24020.13461773  .00040561  00000+0  44348-3 0  9994
2 58811  41.4689 273.7443 0007350 202.7408 157.3107 15.62513321155762
CZ-7 R/B                
1 58812U 24013B   24020.82663262  .00976457  75536-5  54895-3 0  9990
2 58812  41.4712 268.1797 0082598 198.5920 251.3599 16.10461908   528
